start=new Date('2022-10-04T00:00:00.000Z').valueOf();
sats=[{"ECCENTRICITY":"0.00012010","LAUNCH_DATE":"2020-01-29","MEAN_MOTION_DOT":"0.00013372","COUNTRY_CODE":"US","ARG_OF_PERICENTER":"94.5132","BSTAR":"0.00091431000000","CLASSIFICATION_TYPE":"U","CENTER_NAME":"EARTH","INCLINATION":"53.0529","MEAN_MOTION_DDOT":"0.0000000000000","MEAN_ANOMALY":"265.5994","TIME_SYSTEM":"UTC","SEMIMAJOR_AXIS":"6925.274","PERIAPSIS":"546.307","RCS_SIZE":"LARGE","OBJECT_NAME":"STARLINK-1140","GP_ID":"214115554","MEAN_MOTION":"15.06424290","APOAPSIS":"547.971","RA_OF_ASC_NODE":"151.1916","FILE":"3590585","ELEMENT_SET_NO":"999","REV_AT_EPOCH":"14761","REF_FRAME":"TEME","OBJECT_TYPE":"PAYLOAD","MEAN_ELEMENT_THEORY":"SGP4","EPHEMERIS_TYPE":"0","SITE":"AFETR","PERIOD":"95.591","TLE_LINE1":"1 45050U 20006G   22276.76755344  .00013372  00000-0  91431-3 0  9999","TLE_LINE2":"2 45050  53.0529 151.1916 0001201  94.5132 265.5994 15.06424290147614","NORAD_CAT_ID":"45050","EPOCH":"2022-10-03T18:25:16.617216","DECAY_DATE":null,"OBJECT_ID":"2020-006G"},{"MEAN_ANOMALY":"210.4259","MEAN_MOTION_DDOT":"0.0000000000000","CENTER_NAME":"EARTH","INCLINATION":"53.0484","BSTAR":"0.00217720000000","ARG_OF_PERICENTER":"149.6823","CLASSIFICATION_TYPE":"U","COUNTRY_CODE":"US","LAUNCH_DATE":"2020-01-29","ECCENTRICITY":"0.00015280","MEAN_MOTION_DOT":"0.00042663","NORAD_CAT_ID":"45051","EPOCH":"2022-10-03T20:50:54.921408","TLE_LINE2":"2 45051  53.0484 140.6213 0001528 149.6823 210.4259 15.16331326147777","OBJECT_ID":"2020-006H","DECAY_DATE":null,"EPHEMERIS_TYPE":"0","OBJECT_TYPE":"PAYLOAD","MEAN_ELEMENT_THEORY":"SGP4","TLE_LINE1":"1 45051U 20006H   22276.86869122  .00042663  00000-0  21772-2 0  9996","SITE":"AFETR","PERIOD":"94.966","ELEMENT_SET_NO":"999","REV_AT_EPOCH":"14777","RA_OF_ASC_NODE":"140.6213","APOAPSIS":"517.995","FILE":"3590585","REF_FRAME":"TEME","SEMIMAJOR_AXIS":"6895.077","PERIAPSIS":"515.888","TIME_SYSTEM":"UTC","MEAN_MOTION":"15.16331326","RCS_SIZE":"LARGE","OBJECT_NAME":"STARLINK-1141","GP_ID":"214115804"},{"TLE_LINE2":"2 45052  53.0525 151.1629 0001376 101.5087 258.6057 15.06411478147611","EPOCH":"2022-10-03T18:35:53.801664","NORAD_CAT_ID":"45052","DECAY_DATE":null,"OBJECT_ID":"2020-006J","OBJECT_TYPE":"PAYLOAD","MEAN_ELEMENT_THEORY":"SGP4","EPHEMERIS_TYPE":"0","PERIOD":"95.591","SITE":"AFETR","TLE_LINE1":"1 45052U 20006J   22276.77492826  .00010892  00000-0  74877-3 0  9994","FILE":"3590585","APOAPSIS":"548.131","RA_OF_ASC_NODE":"151.1629","REV_AT_EPOCH":"14761","ELEMENT_SET_NO":"999","REF_FRAME":"TEME","TIME_SYSTEM":"UTC","PERIAPSIS":"546.225","SEMIMAJOR_AXIS":"6925.313","OBJECT_NAME":"STARLINK-1148","GP_ID":"214116056","RCS_SIZE":"LARGE","MEAN_MOTION":"15.06411478","MEAN_MOTION_DDOT":"0.0000000000000","MEAN_ANOMALY":"258.6057","CENTER_NAME":"EARTH","INCLINATION":"53.0525","ARG_OF_PERICENTER":"101.5087","BSTAR":"0.00074877000000","CLASSIFICATION_TYPE":"U","LAUNCH_DATE":"2020-01-29","MEAN_MOTION_DOT":"0.00010892","ECCENTRICITY":"0.00013760","COUNTRY_CODE":"US"},{"ECCENTRICITY":"0.00014200","LAUNCH_DATE":"2020-01-29","MEAN_MOTION_DOT":"0.00029987","COUNTRY_CODE":"US","ARG_OF_PERICENTER":"118.3457","BSTAR":"0.00153040000000","CLASSIFICATION_TYPE":"U","CENTER_NAME":"EARTH","INCLINATION":"53.0026","MEAN_MOTION_DDOT":"0.0000000000000","MEAN_ANOMALY":"241.7679","TIME_SYSTEM":"UTC","PERIAPSIS":"515.460","SEMIMAJOR_AXIS":"6894.574","GP_ID":"214116299","OBJECT_NAME":"STARLINK-1155","RCS_SIZE":"LARGE","MEAN_MOTION":"15.16497072","FILE":"3590585","APOAPSIS":"517.418","RA_OF_ASC_NODE":"135.9452","REV_AT_EPOCH":"14779","ELEMENT_SET_NO":"999","REF_FRAME":"TEME","MEAN_ELEMENT_THEORY":"SGP4","OBJECT_TYPE":"PAYLOAD","EPHEMERIS_TYPE":"0","PERIOD":"94.956","SITE":"AFETR","TLE_LINE1":"1 45053U 20006K   22276.83895114  .00029987  00000-0  15304-2 0  9993","TLE_LINE2":"2 45053  53.0026 135.9452 0001420 118.3457 241.7679 15.16497072147796","NORAD_CAT_ID":"45053","EPOCH":"2022-10-03T20:08:05.378496","DECAY_DATE":null,"OBJECT_ID":"2020-006K"},{"CLASSIFICATION_TYPE":"U","BSTAR":"0.00017996000000","ARG_OF_PERICENTER":"105.4382","COUNTRY_CODE":"US","ECCENTRICITY":"0.00012520","LAUNCH_DATE":"2020-01-29","MEAN_MOTION_DOT":"0.00002400","MEAN_ANOMALY":"254.6745","MEAN_MOTION_DDOT":"0.0000000000000","INCLINATION":"53.0541","CENTER_NAME":"EARTH","REF_FRAME":"TEME","ELEMENT_SET_NO":"999","REV_AT_EPOCH":"14760","APOAPSIS":"548.072","RA_OF_ASC_NODE":"151.4894","FILE":"3590585","MEAN_MOTION":"15.06402744","RCS_SIZE":"LARGE","GP_ID":"214115055","OBJECT_NAME":"STARLINK-1156","SEMIMAJOR_AXIS":"6925.340","PERIAPSIS":"546.338","TIME_SYSTEM":"UTC","OBJECT_ID":"2020-006L","DECAY_DATE":null,"NORAD_CAT_ID":"45054","EPOCH":"2022-10-03T16:55:02.579808","TLE_LINE2":"2 45054  53.0541 151.4894 0001252 105.4382 254.6745 15.06402744147607","TLE_LINE1":"1 45054U 20006L   22276.70489097  .00002400  00000-0  17996-3 0  9990","SITE":"AFETR","PERIOD":"95.592","EPHEMERIS_TYPE":"0","MEAN_ELEMENT_THEORY":"SGP4","OBJECT_TYPE":"PAYLOAD"},{"OBJECT_TYPE":"PAYLOAD","MEAN_ELEMENT_THEORY":"SGP4","EPHEMERIS_TYPE":"0","SITE":"AFETR","PERIOD":"95.592","TLE_LINE1":"1 45057U 20006P   22276.85232659  .00002582  00000-0  19214-3 0  9995","TLE_LINE2":"2 45057  53.0550 150.8338 0001436  95.1176 264.9977 15.06409368147639","NORAD_CAT_ID":"45057","EPOCH":"2022-10-03T20:27:21.017376","DECAY_DATE":null,"OBJECT_ID":"2020-006P","TIME_SYSTEM":"UTC","SEMIMAJOR_AXIS":"6925.320","PERIAPSIS":"546.190","RCS_SIZE":"LARGE","GP_ID":"214115305","OBJECT_NAME":"STARLINK-1159","MEAN_MOTION":"15.06409368","RA_OF_ASC_NODE":"150.8338","APOAPSIS":"548.179","FILE":"3590585","ELEMENT_SET_NO":"999","REV_AT_EPOCH":"14763","REF_FRAME":"TEME","CENTER_NAME":"EARTH","INCLINATION":"53.0550","MEAN_MOTION_DDOT":"0.0000000000000","MEAN_ANOMALY":"264.9977","MEAN_MOTION_DOT":"0.00002582","LAUNCH_DATE":"2020-01-29","ECCENTRICITY":"0.00014360","COUNTRY_CODE":"US","ARG_OF_PERICENTER":"95.1176","BSTAR":"0.00019214000000","CLASSIFICATION_TYPE":"U"},{"TLE_LINE2":"2 45058  53.0556 151.1639 0001322  92.9430 267.1710 15.06418653147622","NORAD_CAT_ID":"45058","EPOCH":"2022-10-03T18:41:11.830560","DECAY_DATE":null,"OBJECT_ID":"2020-006Q","OBJECT_TYPE":"PAYLOAD","MEAN_ELEMENT_THEORY":"SGP4","EPHEMERIS_TYPE":"0","PERIOD":"95.591","SITE":"AFETR","TLE_LINE1":"1 45058U 20006Q   22276.77860915  .00001244  00000-0  10237-3 0  9999","FILE":"3590585","APOAPSIS":"548.072","RA_OF_ASC_NODE":"151.1639","REV_AT_EPOCH":"14762","ELEMENT_SET_NO":"999","REF_FRAME":"TEME","TIME_SYSTEM":"UTC","PERIAPSIS":"546.241","SEMIMAJOR_AXIS":"6925.291","GP_ID":"214116555","OBJECT_NAME":"STARLINK-1162","RCS_SIZE":"LARGE","MEAN_MOTION":"15.06418653","MEAN_MOTION_DDOT":"0.0000000000000","MEAN_ANOMALY":"267.1710","CENTER_NAME":"EARTH","INCLINATION":"53.0556","ARG_OF_PERICENTER":"92.9430","BSTAR":"0.00010237000000","CLASSIFICATION_TYPE":"U","MEAN_MOTION_DOT":"0.00001244","LAUNCH_DATE":"2020-01-29","ECCENTRICITY":"0.00013220","COUNTRY_CODE":"US"},{"TIME_SYSTEM":"UTC","SEMIMAJOR_AXIS":"6925.310","PERIAPSIS":"546.199","RCS_SIZE":"LARGE","GP_ID":"214116799","OBJECT_NAME":"STARLINK-1165","MEAN_MOTION":"15.06412713","APOAPSIS":"548.150","RA_OF_ASC_NODE":"151.0661","FILE":"3590585","ELEMENT_SET_NO":"999","REV_AT_EPOCH":"14762","REF_FRAME":"TEME","MEAN_ELEMENT_THEORY":"SGP4","OBJECT_TYPE":"PAYLOAD","EPHEMERIS_TYPE":"0","SITE":"AFETR","PERIOD":"95.591","TLE_LINE1":"1 45059U 20006R   22276.80073102  .00013889  00000-0  94913-3 0  9999","TLE_LINE2":"2 45059  53.0523 151.0661 0001409 104.9579 255.1566 15.06412713147622","NORAD_CAT_ID":"45059","EPOCH":"2022-10-03T19:13:03.160128","DECAY_DATE":null,"OBJECT_ID":"2020-006R","MEAN_MOTION_DOT":"0.00013889","LAUNCH_DATE":"2020-01-29","ECCENTRICITY":"0.00014090","COUNTRY_CODE":"US","ARG_OF_PERICENTER":"104.9579","BSTAR":"0.00094913000000","CLASSIFICATION_TYPE":"U","CENTER_NAME":"EARTH","INCLINATION":"53.0523","MEAN_MOTION_DDOT":"0.0000000000000","MEAN_ANOMALY":"255.1566"},{"OBJECT_ID":"2020-006S","DECAY_DATE":null,"EPOCH":"2022-10-03T09:34:30.741888","NORAD_CAT_ID":"45060","TLE_LINE2":"2 45060  53.0534 152.8628 0001541  90.5023 269.6143 15.06409287147565","TLE_LINE1":"1 45060U 20006S   22276.39896692  .00012996  00000-0  88952-3 0  9996","SITE":"AFETR","PERIOD":"95.592","EPHEMERIS_TYPE":"0","OBJECT_TYPE":"PAYLOAD","MEAN_ELEMENT_THEORY":"SGP4","REF_FRAME":"TEME","ELEMENT_SET_NO":"999","REV_AT_EPOCH":"14756","RA_OF_ASC_NODE":"152.8628","APOAPSIS":"548.252","FILE":"3590320","MEAN_MOTION":"15.06409287","RCS_SIZE":"LARGE","OBJECT_NAME":"STARLINK-1166","GP_ID":"214084047","SEMIMAJOR_AXIS":"6925.320","PERIAPSIS":"546.118","TIME_SYSTEM":"UTC","MEAN_ANOMALY":"269.6143","MEAN_MOTION_DDOT":"0.0000000000000","INCLINATION":"53.0534","CENTER_NAME":"EARTH","CLASSIFICATION_TYPE":"U","BSTAR":"0.00088952000000","ARG_OF_PERICENTER":"90.5023","COUNTRY_CODE":"US","LAUNCH_DATE":"2020-01-29","ECCENTRICITY":"0.00015410","MEAN_MOTION_DOT":"0.00012996"},{"MEAN_ANOMALY":"266.7599","MEAN_MOTION_DDOT":"0.0000000000000","INCLINATION":"53.0524","CENTER_NAME":"EARTH","CLASSIFICATION_TYPE":"U","BSTAR":"0.00080031000000","ARG_OF_PERICENTER":"93.3561","COUNTRY_CODE":"US","MEAN_MOTION_DOT":"0.00011667","LAUNCH_DATE":"2020-01-29","ECCENTRICITY":"0.00014960","OBJECT_ID":"2020-006T","DECAY_DATE":null,"EPOCH":"2022-10-03T20:53:53.389248","NORAD_CAT_ID":"45061","TLE_LINE2":"2 45061  53.0524 150.7338 0001496  93.3561 266.7599 15.06424304147635","TLE_LINE1":"1 45061U 20006T   22276.87075682  .00011667  00000-0  80031-3 0  9992","SITE":"AFETR","PERIOD":"95.591","EPHEMERIS_TYPE":"0","OBJECT_TYPE":"PAYLOAD","MEAN_ELEMENT_THEORY":"SGP4","REF_FRAME":"TEME","ELEMENT_SET_NO":"999","REV_AT_EPOCH":"14763","APOAPSIS":"548.175","RA_OF_ASC_NODE":"150.7338","FILE":"3590585","MEAN_MOTION":"15.06424304","RCS_SIZE":"LARGE","GP_ID":"214115805","OBJECT_NAME":"STARLINK-1169","SEMIMAJOR_AXIS":"6925.274","PERIAPSIS":"546.103","TIME_SYSTEM":"UTC"}];
